SPACEBEE-118            
1 52012U 22026E   22272.44304716  .00010941  00000+0  54226-3 0  9992
2 52012  97.5076 271.3041 0022434 277.7795  82.0891 15.17702811 29960
SPACEBEE-120            
1 52013U 22026F   22272.45969742  .00010879  00000+0  54269-3 0  9997
2 52013  97.5070 271.2542 0024407 270.5049  89.3388 15.17435110 29950
SPACEBEE-122            
1 52014U 22026G   22272.45790618  .00011484  00000+0  57165-3 0  9993
2 52014  97.5074 271.2614 0023218 273.1676  86.6901 15.17521738 29952
SPACEBEE-119            
1 52015U 22026H   22272.48780144  .00012471  00000+0  62752-3 0  9995
2 52015  97.5077 271.2498 0024011 273.9892  85.8596 15.17106307 29958
SPACEBEE-115            
1 52016U 22026J   22272.46540298  .00010937  00000+0  54603-3 0  9999
2 52016  97.5083 271.2844 0023703 273.8657  85.9866 15.17422714 29950
SPACEBEENZ-14           
1 52018U 22026L   22272.46903448  .00015738  00000+0  76293-3 0  9994
2 52018  97.5070 271.4171 0023053 272.8509  87.0087 15.18372697 29960
SPACEBEENZ-11           
1 52019U 22026M   22272.45693144  .00014761  00000+0  71187-3 0  9995
2 52019  97.5074 271.4309 0022817 272.6900  87.1722 15.18571336 29922
SPACEBEE-127            
1 52020U 22026N   22272.47448820  .00012297  00000+0  61557-3 0  9990
2 52020  97.5073 271.2423 0023780 273.4350  86.4164 15.17294997 29900
SPACEBEE-125            
1 52021U 22026P   22272.49825906  .00013050  00000+0  64106-3 0  9998
2 52021  97.5060 271.3482 0025388 272.8878  86.9450 15.17903949 29836
SPACEBEE-117            
1 52022U 22026Q   22272.47010051  .00012285  00000+0  61391-3 0  9996
2 52022  97.5085 271.2788 0023803 273.5125  86.3386 15.17355284 29829
SPACEBEE-116            
1 52023U 22026R   22272.46050558  .00010841  00000+0  54036-3 0  9996
2 52023  97.5086 271.2935 0023551 273.9010  85.9531 15.17484604 29828
SPACEBEE-113            
1 52024U 22026S   22272.52009421  .00011943  00000+0  59335-3 0  9998
2 52024  97.5084 271.3575 0025329 269.7764  90.0567 15.17533998 29830
SPACEBEE-112            
1 52025U 22026T   22272.43519178  .00012262  00000+0  60368-3 0  9997
2 52025  97.5078 271.3166 0023461 273.3001  86.5549 15.17885126 29822
SPACEBEENZ-13           
1 52026U 22026U   22272.46574057  .00015804  00000+0  76479-3 0  9993
2 52026  97.5071 271.4199 0023027 272.9506  86.9093 15.18431326 29745
SPACEBEE-123            
1 52027U 22026V   22272.48248617  .00013645  00000+0  68429-3 0  9993
2 52027  97.5065 271.2222 0023859 273.7721  86.0784 15.17205454 29732
SPACEBEENZ-12           
1 52028U 22026W   22272.48281940  .00015980  00000+0  77896-3 0  9992
2 52028  97.5087 271.4203 0023220 273.2378  86.6200 15.18173021 29838
SPACEBEE-124            
1 52029U 22026X   22272.48534511  .00012398  00000+0  62346-3 0  9992
2 52029  97.5063 271.2172 0023839 274.0382  85.8126 15.17132556 28458
SPACEBEE-136            
1 52164U 22033H   22272.50814926  .00018122  00000+0  71603-3 0  9991
2 52164  97.3745 352.3194 0008590  20.1917 339.9659 15.25522325 27537
SPACEBEE-138            
1 52166U 22033K   22272.18987670  .00015324  00000+0  60797-3 0  9997
2 52166  97.3770 352.0347 0009800  10.9062 349.2386 15.25410680 27482
SPACEBEE-130            
1 52176U 22033V   22272.18357814  .00016019  00000+0  63258-3 0  9996
2 52176  97.3753 352.0131 0006671  19.0262 341.1224 15.25581715 27480
SPACEBEE-139            
1 52177U 22033W   22272.49435970  .00017511  00000+0  70436-3 0  9995
2 52177  97.3773 352.2430 0009582  16.3760 343.7785 15.24923339 27520
SPACEBEE-129            
1 52179U 22033Y   22272.50027203  .00016850  00000+0  67940-3 0  9996
2 52179  97.3754 352.2055 0008299  21.7128 338.4460 15.24861592 27529
SPACEBEE-134            
1 52180U 22033Z   22272.18765678  .00014643  00000+0  59887-3 0  9996
2 52180  97.3744 351.8593 0008637  21.8617 338.2987 15.24410239 27476
SPACEBEE-131            
1 52181U 22033AA  22272.48911060  .00016358  00000+0  65718-3 0  9993
2 52181  97.3762 352.2265 0008452  22.7673 337.3938 15.24987311 27527
SPACEBEE-128            
1 52182U 22033AB  22272.16838480  .00015296  00000+0  61606-3 0  9995
2 52182  97.3774 351.9243 0008585  22.9602 337.2018 15.24916797 27476
SPACEBEE-133            
1 52183U 22033AC  22272.48674448  .00014787  00000+0  59418-3 0  9995
2 52183  97.3760 352.2315 0008525  21.6810 338.4787 15.25003217 27513
SPACEBEE-132            
1 52185U 22033AE  22272.20436966  .00014807  00000+0  58979-3 0  9992
2 52185  97.3765 352.0119 0008517  35.3360 324.8440 15.25297251 27487
SPACEBEE-137            
1 52186U 22033AF  22272.49347095  .00016241  00000+0  65530-3 0  9993
2 52186  97.3763 352.2305 0008787  21.6656 338.4952 15.24841703 27520
SPACEBEE-135            
1 52187U 22033AG  22272.20316030  .00014708  00000+0  58598-3 0  9990
2 52187  97.3770 352.0277 0007976  18.7723 341.3808 15.25295507 27480
SPACEBEE-143            
1 52394U 22047A   22272.50505267  .00011098  00000+0  59995-3 0  9991
2 52394  97.4452 355.1470 0009203 167.6013 192.5448 15.14814801 24090
SPACEBEENZ-15           
1 52395U 22047B   22272.19324239  .00012683  00000+0  66897-3 0  9995
2 52395  97.4448 354.9481 0009276 167.5277 192.6187 15.15655382 24051
SPACEBEENZ-16           
1 52396U 22047C   22272.45727982  .00012761  00000+0  67304-3 0  9998
2 52396  97.4447 355.2074 0009266 167.1489 192.9981 15.15654629 24095
SPACEBEENZ-17           
1 52397U 22047D   22272.19524099  .00012358  00000+0  65270-3 0  9996
2 52397  97.4448 354.9462 0009298 168.0416 192.1039 15.15613174 24051
SPACEBEENZ-18           
1 52398U 22047E   22272.46015263  .00012991  00000+0  68590-3 0  9996
2 52398  97.4451 355.2043 0009243 167.1358 193.0112 15.15615249 24091
SPACEBEE-140            
1 52399U 22047F   22272.54488194  .00011476  00000+0  61278-3 0  9996
2 52399  97.4449 355.2459 0009286 165.7999 194.3496 15.15246244 24120
SPACEBEE-141            
1 52400U 22047G   22272.49439859  .00010703  00000+0  57671-3 0  9991
2 52400  97.4454 355.1615 0009278 165.3904 194.7598 15.14941903 24103
SPACEBEE-142            
1 52401U 22047H   22272.50382596  .00010944  00000+0  59212-3 0  9999
2 52401  97.4450 355.1458 0009207 165.5500 194.5997 15.14789108 24097
SPACEBEENZ-20           
1 52402U 22047J   22272.46673414  .00012402  00000+0  65623-3 0  9991
2 52402  97.4446 355.1821 0009899 170.0290 190.1141 15.15542419 24097
SPACEBEENZ-22           
1 52403U 22047K   22272.47162335  .00011381  00000+0  60423-3 0  9996
2 52403  97.4441 355.1757 0009975 169.5745 190.5696 15.15444457 24096
SPACEBEENZ-19           
1 52404U 22047L   22272.20073668  .00012224  00000+0  64650-3 0  9991
2 52404  97.4444 354.9267 0009988 170.8860 189.2556 15.15563456 24057
SPACEBEENZ-21           
1 52405U 22047M   22272.46780294  .00012156  00000+0  64368-3 0  9990
2 52405  97.4446 355.1814 0009966 169.8674 190.2761 15.15522090 24091
SPACEBEE-148            
1 52406U 22047N   22272.48655892  .00010531  00000+0  56399-3 0  9998
2 52406  97.4445 355.1576 0009933 168.9648 191.1804 15.15156805 24096
SPACEBEE-149            
1 52407U 22047P   22272.18063899  .00010662  00000+0  57763-3 0  9997
2 52407  97.4445 354.7984 0009789 170.5315 189.6103 15.14744453 24044
SPACEBEE-153            
1 52408U 22047Q   22272.49037083  .00011005  00000+0  59074-3 0  9997
2 52408  97.4476 355.2079 0009765 179.8991 180.2245 15.15063510 24094
SPACEBEE-150            
1 52409U 22047R   22272.17549695  .00010162  00000+0  54983-3 0  9997
2 52409  97.4447 354.8094 0009792 171.3130 188.8273 15.14801978 24044
SPACEBEE-144            
1 52410U 22047S   22272.24036581  .00010084  00000+0  54537-3 0  9990
2 52410  97.4458 354.8900 0009138 169.1882 190.9548 15.14826590 24054
SPACEBEE-145            
1 52411U 22047T   22272.50907913  .00011267  00000+0  60990-3 0  9990
2 52411  97.4452 355.1403 0009081 168.6548 191.4891 15.14766486 24099
SPACEBEE-146            
1 52412U 22047U   22272.19034443  .00009997  00000+0  54485-3 0  9994
2 52412  97.4444 354.7961 0009104 169.7744 190.3675 15.14554629 24048
SPACEBEE-151            
1 52413U 22047V   22272.51070370  .00011010  00000+0  59627-3 0  9992
2 52413  97.4444 355.1250 0009733 170.8954 189.2456 15.14749995 24090
SPACEBEE-152            
1 52414U 22047W   22272.18869891  .00010086  00000+0  54841-3 0  9995
2 52414  97.4440 354.7865 0009770 171.5004 188.6395 15.14630099 24043
SPACEBEE-147            
1 52415U 22047X   22272.18525668  .00010154  00000+0  55123-3 0  9997
2 52415  97.4451 354.8102 0009056 172.0848 188.0529 15.14689489 24040
SPACEBEE-155            
1 52416U 22047Y   22272.20192278  .00007799  00000+0  42906-3 0  9994
2 52416  97.4433 354.7662 0010172 175.2155 184.9176 15.14287206 24042
SPACEBEE-154            
1 52417U 22047Z   22272.19265807  .00009920  00000+0  54053-3 0  9996
2 52417  97.4444 354.7848 0009655 173.1373 186.9993 15.14559830 24048
